STARLINK-30250          
1 57527U 23115G   26068.19241819 -.00006688  00000+0 -23974-3 0  9992
2 57527  42.9981   4.5339 0000478 287.7071  72.3728 15.26761278143176
FLOCK 4G-26             
1 62633U 25009AA  26068.80489479  .00011283  00000+0  42469-3 0  9999
2 62633  97.4054 151.3913 0001988 299.1273  60.9767 15.27281631 63733
